STARLINK-2022           
1 47643U 21012Z   24292.39761146  .00009309  00000+0  64272-3 0  9990
2 47643  53.0536 168.9410 0001158  88.2154 271.8967 15.06415137203288
